{"type":"FeatureCollection","generated":"2026-09-03T17:21:04Z","features":[{"type":"Feature","properties":{"ref":"ONFF-0004","name":"Princess Elisabeth base","prov":"Antarctica","iucn":"Cat Ia","loc":"KB18QB","site":"http://www.antarcticstation.org/","nopoly":true,"src":"wwff"},"geometry":{"type":"Point","coordinates":[23.3468,-71.95041]}},{"type":"Feature","properties":{"ref":"ONFF-0254","name":"Kollintenbos/Kollinten","prov":"Vlaams-Brabant","iucn":"Cat IV","loc":"JO20EX","site":"www.natuurpuntzemst.be/index.php?page=op-stap-in-kollinten","nopoly":true,"src":"wwff"},"geometry":{"type":"Point","coordinates":[4.39794,50.99383]}},{"type":"Feature","properties":{"ref":"ONFF-0951","name":"Vallée de l'Orneau","prov":"Hainaut","iucn":"Natura2000","loc":"JO21IL","site":"https://biodiversite.wallonie.be/fr/6019","nopoly":true,"src":"wwff"},"geometry":{"type":"Point","coordinates":[4.68866,50.47486]}},{"type":"Feature","properties":{"ref":"ONFF-0952","name":"Vallée de la Lasne","prov":"Hainaut","iucn":"Natura2000","loc":"JO20GR","site":"https://natura2000.eea.europa.eu/?sitecode=BE31002C0&views=Sites_View","nopoly":true,"src":"wwff"},"geometry":{"type":"Point","coordinates":[4.54888,50.71809]}},{"type":"Feature","properties":{"ref":"ONFF-0953","name":"Velpevallei","prov":"Vlaams-Brabant","iucn":"Cat IV","loc":"JO20KU","site":"https://natuurenbos.be/natuurgebieden/velpe-en-malendriesvallei","nopoly":true,"src":"wwff"},"geometry":{"type":"Point","coordinates":[4.9014,50.84896]}},{"type":"Feature","properties":{"ref":"ONFF-0954","name":"Vallei van de grote beek","prov":"Limburg","iucn":"Cat IV","loc":"JO21OC","site":"https://www.natuurpunt.be/natuurgebieden/grote-beek","nopoly":true,"src":"wwff"},"geometry":{"type":"Point","coordinates":[5.20355,51.08977]}},{"type":"Feature","properties":{"ref":"ONFF-0955","name":"Willekensberg","prov":"Limburg","iucn":"Cat IV","loc":"JO20NX","site":"https://www.natuurpunt.be/afdelingen/natuurpunt-lummen-0/natuurgebieden","nopoly":true,"src":"wwff"},"geometry":{"type":"Point","coordinates":[5.15765,50.98217]}},{"type":"Feature","properties":{"ref":"ONFF-0956","name":"Den Haert","prov":"Antwerpen","iucn":"Cat IV","loc":"JO21KF","site":"https://www.natuurpunt.be/natuurgebieden/den-haert","nopoly":true,"src":"wwff"},"geometry":{"type":"Point","coordinates":[4.85061,51.21614]}},{"type":"Feature","properties":{"ref":"ONFF-0957","name":"Kerkeheide","prov":"Antwerpen","iucn":"Cat IV","loc":"JO21JE","site":"https://www.natuurpunt.be/natuurgebieden/kerkeheide","nopoly":true,"src":"wwff"},"geometry":{"type":"Point","coordinates":[4.75162,51.17533]}},{"type":"Feature","properties":{"ref":"ONFF-0958","name":"Breeven","prov":"Antwerpen","iucn":"Cat IV","loc":"JO21LF","site":"https://www.natuurpunt.be/natuurgebieden/breeven","nopoly":true,"src":"wwff"},"geometry":{"type":"Point","coordinates":[4.99092,51.22462]}},{"type":"Feature","properties":{"ref":"ONFF-0959","name":"Vallei van de Abeek","prov":"Limburg","iucn":"Cat IV","loc":"JO21SC","site":"https://www.natuurpunt.be/natuurgebieden/vallei-van-de-abeek","nopoly":true,"src":"wwff"},"geometry":{"type":"Point","coordinates":[5.5087,51.12232]}},{"type":"Feature","properties":{"ref":"ONFF-0960","name":"Middelkerke - Raversijde","prov":"West-Vlaanderen","iucn":"Cat IV","loc":"JO11KE","site":"https://www.agentschapmdk.be/nl/nieuws/Natuurbeheerplan","nopoly":true,"src":"wwff"},"geometry":{"type":"Point","coordinates":[2.8405,51.19817]}},{"type":"Feature","properties":{"ref":"ONFF-0961","name":"Parkbos Gent","prov":"Oost-Vlaanderen","iucn":"Cat VI","loc":"JO10TX","site":"https://natuurenbos.be/parkbos","nopoly":true,"src":"wwff"},"geometry":{"type":"Point","coordinates":[3.66563,50.99725]}},{"type":"Feature","properties":{"ref":"ONFF-0962","name":"Rijvissche","prov":"Oost-Vlaanderen","iucn":"Cat IV","loc":"JO11UA","site":"https://www.natuurpunt.be/natuurgebieden/rijvissche","nopoly":true,"src":"wwff"},"geometry":{"type":"Point","coordinates":[3.69894,51.01542]}},{"type":"Feature","properties":{"ref":"ONFF-0963","name":"Malakovdomein","prov":"Vlaams-Brabant","iucn":"Cat IV","loc":"JO20CR","site":"https://natuurenbos.be/natuurgebieden/malakoffdomein","nopoly":true,"src":"wwff"},"geometry":{"type":"Point","coordinates":[4.23073,50.71583]}},{"type":"Feature","properties":{"ref":"ONFF-0964","name":"Vallée de la l’Argentine et de la Lasne","iucn":"Natura2000","loc":"JO20FR","site":"https://www.protectedplanet.net/555623321?site_pid=555623321","nopoly":true,"src":"wwff"},"geometry":{"type":"Point","coordinates":[4.46729,50.73332]}}]}